OPTICUBE 04             
1 41851U 16067D   24345.93976960  .00005283  00000+0  37336-3 0  9998
2 41851  98.0853 158.7642 0017132 178.7678 181.3592 15.05250247441802
AEROCUBE 8D             
1 41852U 16067E   24346.07556213  .00011553  00000+0  65824-3 0  9990
2 41852  98.1103 165.6592 0003700 226.5313 133.5609 15.12980435442094
AEROCUBE 8C             
1 41853U 16067F   24345.76018136  .00013007  00000+0  73949-3 0  9996
2 41853  98.0934 163.4837 0007075 154.5476 205.6103 15.13011475442037
PROMETHEUS 2-1          
1 41854U 16067G   24345.77066718  .00038341  00000+0  13228-2 0  9998
2 41854  98.0928 174.5491 0008854 164.8996 195.2509 15.29841926442603
PROMETHEUS 2-3          
1 41855U 16067H   24346.10124812  .00035404  00000+0  12248-2 0  9995
2 41855  98.0868 174.2268 0007348 174.9732 185.1581 15.29783756442652
CORVUS BC2              
1 42846U 17042X   24345.75203411  .00006764  00000+0  53937-3 0  9991
2 42846  97.3677 161.3875 0011125 178.8138 181.3115 15.00573154403897
CORVUS BC1              
1 42847U 17042Y   24345.76205565  .00007142  00000+0  56723-3 0  9992
2 42847  97.3675 161.8110 0010349 153.3487 206.8272 15.00717673403911
MIRATA                  
1 43015U 17073C   24345.94608748  .00050041  00000+0  16166-2 0  9996
2 43015  97.5673 230.1134 0132258  11.5722 348.8503 15.23793685383087
MAKERSAT 0              
1 43016U 17073D   24345.55669228  .00022982  00000+0  11008-2 0  9997
2 43016  97.5451 220.2484 0171522  43.7305 317.7362 15.06813065382398
SIRION PATHFINDER-2     
1 43759U 18099B   24345.87742701  .00008509  00000+0  57718-3 0  9991
2 43759  97.5075  37.2560 0011650  51.6478 308.5794 15.06614534329072
CORVUS BC4              
1 43767U 18099K   24345.88117454  .00007964  00000+0  55730-3 0  9998
2 43767  97.4901  33.8638 0011118 101.1075 259.1403 15.05474990328941
MOVE-II                 
1 43780U 18099Y   24345.91204247  .00049085  00000+0  15328-2 0  9992
2 43780  97.4972  48.8673 0005160  80.3826 279.7998 15.33017771329827
SPACEBEE-7              
1 43816U 18099BL  24346.14238670  .00027547  00000+0  11911-2 0  9998
2 43816  97.5255  48.6526 0008315  38.1831 321.9992 15.22396472329223
SPACEBEE-6              
1 43818U 18099BN  24345.62929931  .00304177  00000+0  29324-2 0  9993
2 43818  97.5093  58.9696 0004772 330.0834  30.0152 15.65536115330019
SHIELDS 1               
1 43850U 18104B   24345.76889455  .00028546  00000+0  55155-3 0  9992
2 43850  85.0193 162.4932 0010169 114.4376 245.7942 15.47582116333370
SONATE                  
1 44400U 19038Q   24345.08012656  .00060332  00000+0  10683-2 0  9992
2 44400  97.7132 348.8691 0011185 180.8601 179.2632 15.50021697301169
LUCKY-7                 
1 44406U 19038W   24346.08381731  .01227528  93166-3  14898-2 0  9996
2 44406  97.6848 359.4507 0006199 150.3083 209.8551 16.08344074301966
DUCHIFAT-3              
1 44854U 19089C   24346.18346314  .00032886  00000+0  11573-2 0  9996
2 44854  36.9513  45.9768 0010934 145.3691 214.7774 15.28411635275179
M2 PATHFINDER           
1 45727U 20037E   24346.02598850  .00005806  00000+0  47385-3 0  9991
2 45727  97.7764 161.9417 0011026 242.7644 117.2456 14.99771690242428
NETSAT-4                
1 46504U 20068U   24345.89487968  .00017783  00000+0  77075-3 0  9996
2 46504  97.8265 308.8563 0011210 104.7295 255.5183 15.22388892230983
NETSAT-3                
1 46505U 20068V   24346.14821697  .00016195  00000+0  71802-3 0  9995
2 46505  97.8250 308.4039 0010357 112.1134 248.1202 15.21644634231000
NETSAT-1                
1 46506U 20068W   24345.47115420  .00015624  00000+0  75762-3 0  9996
2 46506  97.8274 306.6018 0009008 123.6408 236.5686 15.18572739230824
NETSAT-2                
1 46507U 20068X   24345.65562408  .00019493  00000+0  84873-3 0  9990
2 46507  97.8254 308.1864 0008198 124.1810 236.0203 15.22239715230897
WILDTRACKCUBE-SIMBA     
1 47941U 21022K   24346.16883743  .00026731  00000+0  86584-3 0  9993
2 47941  97.4406 242.2763 0009795 236.3620 123.6687 15.31949351205455
GRBALPHA                
1 47959U 21022AD  24346.14466701  .00057471  00000+0  12986-2 0  9990
2 47959  97.4400 245.9359 0006952 211.7720 148.3109 15.42966047204511
BEESAT-8                
1 48085U 21022AP  24345.54962141  .00205977  00000+0  22078-2 0  9992
2 48085  97.4725 252.1241 0005893 139.3805 220.7893 15.63137535205076
LEDSAT                  
1 49069U 21073D   24346.19361596  .00038306  00000+0  10183-2 0  9994
2 49069  97.4167  57.3641 0014723  17.2554 342.9188 15.38036629183528
ROBUSTA-1F (MTCUBE 2)   
1 53109U 22080E   24345.74158267 -.00000003  00000+0  00000+0 0  9990
2 53109  70.1181 130.7319 0008378  50.1332 310.0064  6.42584164 56502
SITRO-AIS 5 (KATYS)     
1 57176U 23091L   24346.10468283  .00014307  00000+0  78349-3 0  9990
2 57176  97.5890  37.1811 0014824 232.7224 127.2656 15.14239524 80214
SITRO-AIS 6 (CHIRKIN)   
1 57192U 23091AC  24346.15127690  .00013866  00000+0  75929-3 0  9997
2 57192  97.5892  37.2582 0014576 231.7679 128.2241 15.14253189 80222
SITRO-AIS 8 (ANOKHIN)   
1 57193U 23091AD  24346.12547697  .00014165  00000+0  75874-3 0  9990
2 57193  97.5886  37.4344 0014232 232.4351 127.5589 15.15037152 80237
SITRO-AIS 7 (FARTUSHNIY)
1 57194U 23091AE  24346.16403923  .00013961  00000+0  76654-3 0  9998
2 57194  97.5889  37.2324 0014548 232.7836 127.2068 15.14155915 80223
SITRO-AIS 10 (BURDAEV)  
1 57199U 23091AK  24346.11961006  .00016073  00000+0  80409-3 0  9999
2 57199  97.5900  38.9227 0010056 216.5886 143.4662 15.17460759 80326
SITRO-AIS 9 (SHCHUKIN)  
1 57201U 23091AM  24346.12213368  .00015899  00000+0  79708-3 0  9990
2 57201  97.5895  38.8850 0010010 216.6774 143.3775 15.17389811 80324
SITRO-AIS 12 (SMIRENNIY)
1 57204U 23091AQ  24346.12779600  .00015976  00000+0  79637-3 0  9996
2 57204  97.5905  39.0953 0010038 210.0626 150.0032 15.17588272 80334
SITRO-AIS 11 (SHEFFER)  
1 57208U 23091AU  24346.16611594  .00016998  00000+0  84357-3 0  9991
2 57208  97.5904  39.1822 0009890 210.4489 149.6171 15.17731046 80346
VERONIKA                
1 58261U 23174F   24346.14527472  .00043125  00000+0  12075-2 0  9991
2 58261  97.4414  60.7431 0008646 337.9601  22.1270 15.36470558 60720
ROBUSTA-1E (ENSO)       
1 58470U 23185J   24346.15467892  .00035829  00000+0  10247-2 0  9996
2 58470  97.4038  52.1467 0009937  16.0300 344.1256 15.35836527 57170
SITRO-AIS 29            
1 59052U 24039B   24346.16332339  .00063488  00000+0  12532-2 0  9991
2 59052  97.4083 308.9154 0008637 322.3610  37.7034 15.46911509 43759
SITRO-AIS 30            
1 59053U 24039C   24346.12455450  .00065833  00000+0  13219-2 0  9997
2 59053  97.4084 308.8088 0009136 323.1146  36.9474 15.46398344 43737
SITRO-AIS 31            
1 59054U 24039D   24346.15479371  .00065688  00000+0  12999-2 0  9991
2 59054  97.4081 308.9216 0008873 323.4039  36.6603 15.46826716 43763
SITRO-AIS 33            
1 59055U 24039E   24346.13286838  .00066529  00000+0  13107-2 0  9991
2 59055  97.4085 308.9632 0008523 324.7772  35.2913 15.46955532 43757
SITRO-AIS 35            
1 59056U 24039F   24346.12663272  .00066948  00000+0  13166-2 0  9992
2 59056  97.4084 308.9660 0008513 326.0038  34.0665 15.47006008 43754
SITRO-AIS 32            
1 59057U 24039G   24346.15621000  .00066216  00000+0  13187-2 0  9990
2 59057  97.4088 308.9341 0008725 325.0755  34.9921 15.46640579 43755
SITRO-AIS 34            
1 59058U 24039H   24346.13232712  .00068504  00000+0  13502-2 0  9990
2 59058  97.4085 308.9658 0008481 324.7391  35.3297 15.46934869 43754
SITRO-AIS 36            
1 59059U 24039J   24346.17624922  .00062738  00000+0  12307-2 0  9998
2 59059  97.4082 309.0539 0008351 326.2819  33.7898 15.47098622 43769
SITRO-AIS 49            
1 59060U 24039K   24346.12919355  .00063642  00000+0  12648-2 0  9995
2 59060  97.4089 308.9679 0008562 325.0034  35.0652 15.46714121 43751
SITRO-AIS 50            
1 59061U 24039L   24346.14665031  .00066083  00000+0  12814-2 0  9994
2 59061  97.4081 309.0911 0008130 325.1656  34.9061 15.47422213 43769
SITRO-AIS 51            
1 59062U 24039M   24346.14423391  .00068837  00000+0  13291-2 0  9995
2 59062  97.4078 309.0919 0008010 326.3812  33.6929 15.47535444 43768
SITRO-AIS 52            
1 59063U 24039N   24346.12588760  .00067476  00000+0  13001-2 0  9993
2 59063  97.4085 309.1216 0007994 325.7622  34.3111 15.47601663 43768
SITRO-AIS 25            
1 59066U 24039R   24346.15527387  .00005730  00000+0  50886-3 0  9995
2 59066  95.3870 217.3726 0164879  92.6805 269.3301 14.86405003 42363
SITRO-AIS 26            
1 59067U 24039S   24346.16391766  .00005583  00000+0  49743-3 0  9993
2 59067  95.3870 217.3642 0165023  92.7383 269.2739 14.86274870 42365
SITRO-AIS 27            
1 59068U 24039T   24346.12884557  .00006667  00000+0  59003-3 0  9999
2 59068  95.3871 217.4029 0164440  92.4947 269.5111 14.86552602 42361
SITRO-AIS 28            
1 59071U 24039U   24346.12084362  .00006265  00000+0  55431-3 0  9994
2 59071  95.3872 217.4133 0164248  92.4777 269.5259 14.86595670 42364
GRBBETA                 
1 60237U 24128C   24345.57330804  .00007999  00000+0  65345-3 0  9992
2 60237  61.9944 349.3495 0030810  12.2900 347.8934 14.99741578 23026
OOV-CUBE (TUBSAT-30)    
1 60240U 24128F   24346.13519912  .00004974  00000+0  42836-3 0  9998
2 60240  61.9983 348.2397 0028909   7.9139 352.2400 14.98343115 23104
ROBUSTA-3A (MEDITERRAN*)
1 60243U 24128J   24346.15957215  .00011291  00000+0  90801-3 0  9990
2 60243  61.9913 347.6909 0029182   2.1684 357.9526 15.00079915 23118
